STARLINK-3346           
1 50821U 22001U   24198.72862194  .00003307  00000+0  22571-3 0  9996
2 50821  53.2183 346.8238 0000877 111.6885 248.4201 15.08848600139684
STARLINK-3343           
1 50822U 22001V   24198.68080121  .00007880  00000+0  51256-3 0  9996
2 50822  53.2180 347.1571 0001534  84.4526 275.6641 15.08845600139672
STARLINK-3334           
1 50823U 22001W   24198.64766835 -.00001827  00000+0 -96721-4 0  9990
2 50823  53.2175 347.3040 0001373  84.7494 275.3655 15.08834194139676
STARLINK-3340           
1 50824U 22001X   24198.65296010  .00045237  00000+0  36570-3 0  9991
2 50824  53.2164 329.9825 0000971  38.5695 321.5394 15.70395718139919
STARLINK-3332           
1 50825U 22001Y   24199.14815338  .00005319  00000+0  35187-3 0  9997
2 50825  53.2187 345.0588 0001402  95.0039 265.1113 15.08854922141014
STARLINK-3337           
1 50826U 22001Z   24198.61878076  .00225505  00000+0  50857-2 0  9998
2 50826  53.2128 324.5770 0005380 316.2668  43.7912 15.41886948141275
STARLINK-3329           
1 50827U 22001AA  24198.69551100  .00001328  00000+0  10146-3 0  9996
2 50827  53.2189 347.0905 0001359  92.9788 267.1360 15.08851882139678
STARLINK-3290           
1 50828U 22001AB  24198.68173268 -.00000070  00000+0  13707-4 0  9992
2 50828  53.2178 347.0430 0001112  93.1278 266.9841 15.08852809139529
STARLINK-3294           
1 50829U 22001AC  24198.90159295  .00002950  00000+0  20332-3 0  9991
2 50829  53.2175 346.1644 0001173  90.4313 269.6813 15.08850400139705
STARLINK-3278           
1 50830U 22001AD  24198.72035194  .00001461  00000+0  10984-3 0  9992
2 50830  53.2183 356.9773 0001119  84.7163 275.3957 15.08850174139540
STARLINK-3299           
1 50831U 22001AE  24199.12976205  .00014002  00000+0  89543-3 0  9997
2 50831  53.2171 345.2059 0001491  65.8894 294.2254 15.08867098141018
STARLINK-3328           
1 50832U 22001AF  24198.72131543  .00000414  00000+0  44107-4 0  9991
2 50832  53.2200 357.0211 0001303 111.8119 248.3012 15.08846697139546
STARLINK-3316           
1 50833U 22001AG  24198.91667824  .00101190  00000+0  18107-2 0  9991
2 50833  53.2051 296.8996 0004827  45.7202 284.3956 15.49195156  5803
STARLINK-3331           
1 50834U 22001AH  24198.70563835  .00007370  00000+0  48057-3 0  9999
2 50834  53.2178 357.0451 0001376 112.4617 247.6521 15.08848392139538
STARLINK-3310           
1 50835U 22001AJ  24198.70932252  .00001620  00000+0  11979-3 0  9998
2 50835  53.2183 357.1458 0001256  77.8731 282.2402 15.08850384139538
STARLINK-3330           
1 50836U 22001AK  24199.15183745  .00001032  00000+0  82883-4 0  9994
2 50836  53.2173 354.8157 0001126  79.4122 280.6997 15.08851789140865
STARLINK-3318           
1 50837U 22001AL  24199.13344442  .00001217  00000+0  94579-4 0  9996
2 50837  53.2198 345.1230 0001736  74.3762 285.7422 15.08834212140949
