[{"OBJECT_NAME":"STARLINK-3346","OBJECT_ID":"2022-001U","EPOCH":"2024-07-16T17:29:12.935616","MEAN_MOTION":15.088486,"ECCENTRICITY":8.77e-5,"INCLINATION":53.2183,"RA_OF_ASC_NODE":346.8238,"ARG_OF_PERICENTER":111.6885,"MEAN_ANOMALY":248.4201,"EPHEMERIS_TYPE":0,"CLASSIFICATION_TYPE":"U","NORAD_CAT_ID":50821,"ELEMENT_SET_NO":999,"REV_AT_EPOCH":13968,"BSTAR":0.00022571,"MEAN_MOTION_DOT":3.307e-5,"MEAN_MOTION_DDOT":0},{"OBJECT_NAME":"STARLINK-3343","OBJECT_ID":"2022-001V","EPOCH":"2024-07-16T16:20:21.224544","MEAN_MOTION":15.088456,"ECCENTRICITY":0.0001534,"INCLINATION":53.218,"RA_OF_ASC_NODE":347.1571,"ARG_OF_PERICENTER":84.4526,"MEAN_ANOMALY":275.6641,"EPHEMERIS_TYPE":0,"CLASSIFICATION_TYPE":"U","NORAD_CAT_ID":50822,"ELEMENT_SET_NO":999,"REV_AT_EPOCH":13967,"BSTAR":0.00051256,"MEAN_MOTION_DOT":7.88e-5,"MEAN_MOTION_DDOT":0},{"OBJECT_NAME":"STARLINK-3334","OBJECT_ID":"2022-001W","EPOCH":"2024-07-16T15:32:38.545440","MEAN_MOTION":15.08834194,"ECCENTRICITY":0.0001373,"INCLINATION":53.2175,"RA_OF_ASC_NODE":347.304,"ARG_OF_PERICENTER":84.7494,"MEAN_ANOMALY":275.3655,"EPHEMERIS_TYPE":0,"CLASSIFICATION_TYPE":"U","NORAD_CAT_ID":50823,"ELEMENT_SET_NO":999,"REV_AT_EPOCH":13967,"BSTAR":-9.6721e-5,"MEAN_MOTION_DOT":-1.827e-5,"MEAN_MOTION_DDOT":0},{"OBJECT_NAME":"STARLINK-3340","OBJECT_ID":"2022-001X","EPOCH":"2024-07-16T15:40:15.752640","MEAN_MOTION":15.70395718,"ECCENTRICITY":9.71e-5,"INCLINATION":53.2164,"RA_OF_ASC_NODE":329.9825,"ARG_OF_PERICENTER":38.5695,"MEAN_ANOMALY":321.5394,"EPHEMERIS_TYPE":0,"CLASSIFICATION_TYPE":"U","NORAD_CAT_ID":50824,"ELEMENT_SET_NO":999,"REV_AT_EPOCH":13991,"BSTAR":0.0003657,"MEAN_MOTION_DOT":0.00045237,"MEAN_MOTION_DDOT":0},{"OBJECT_NAME":"STARLINK-3332","OBJECT_ID":"2022-001Y","EPOCH":"2024-07-17T03:33:20.452032","MEAN_MOTION":15.08854922,"ECCENTRICITY":0.0001402,"INCLINATION":53.2187,"RA_OF_ASC_NODE":345.0588,"ARG_OF_PERICENTER":95.0039,"MEAN_ANOMALY":265.1113,"EPHEMERIS_TYPE":0,"CLASSIFICATION_TYPE":"U","NORAD_CAT_ID":50825,"ELEMENT_SET_NO":999,"REV_AT_EPOCH":14101,"BSTAR":0.00035187,"MEAN_MOTION_DOT":5.319e-5,"MEAN_MOTION_DDOT":0},{"OBJECT_NAME":"STARLINK-3337","OBJECT_ID":"2022-001Z","EPOCH":"2024-07-16T14:51:02.657664","MEAN_MOTION":15.41886948,"ECCENTRICITY":0.000538,"INCLINATION":53.2128,"RA_OF_ASC_NODE":324.577,"ARG_OF_PERICENTER":316.2668,"MEAN_ANOMALY":43.7912,"EPHEMERIS_TYPE":0,"CLASSIFICATION_TYPE":"U","NORAD_CAT_ID":50826,"ELEMENT_SET_NO":999,"REV_AT_EPOCH":14127,"BSTAR":0.0050857,"MEAN_MOTION_DOT":0.00225505,"MEAN_MOTION_DDOT":0},{"OBJECT_NAME":"STARLINK-3329","OBJECT_ID":"2022-001AA","EPOCH":"2024-07-16T16:41:32.150400","MEAN_MOTION":15.08851882,"ECCENTRICITY":0.0001359,"INCLINATION":53.2189,"RA_OF_ASC_NODE":347.0905,"ARG_OF_PERICENTER":92.9788,"MEAN_ANOMALY":267.136,"EPHEMERIS_TYPE":0,"CLASSIFICATION_TYPE":"U","NORAD_CAT_ID":50827,"ELEMENT_SET_NO":999,"REV_AT_EPOCH":13967,"BSTAR":0.00010146,"MEAN_MOTION_DOT":1.328e-5,"MEAN_MOTION_DDOT":0},{"OBJECT_NAME":"STARLINK-3290","OBJECT_ID":"2022-001AB","EPOCH":"2024-07-16T16:21:41.703552","MEAN_MOTION":15.08852809,"ECCENTRICITY":0.0001112,"INCLINATION":53.2178,"RA_OF_ASC_NODE":347.043,"ARG_OF_PERICENTER":93.1278,"MEAN_ANOMALY":266.9841,"EPHEMERIS_TYPE":0,"CLASSIFICATION_TYPE":"U","NORAD_CAT_ID":50828,"ELEMENT_SET_NO":999,"REV_AT_EPOCH":13952,"BSTAR":1.3707e-5,"MEAN_MOTION_DOT":-7.0e-7,"MEAN_MOTION_DDOT":0},{"OBJECT_NAME":"STARLINK-3294","OBJECT_ID":"2022-001AC","EPOCH":"2024-07-16T21:38:17.630880","MEAN_MOTION":15.088504,"ECCENTRICITY":0.0001173,"INCLINATION":53.2175,"RA_OF_ASC_NODE":346.1644,"ARG_OF_PERICENTER":90.4313,"MEAN_ANOMALY":269.6813,"EPHEMERIS_TYPE":0,"CLASSIFICATION_TYPE":"U","NORAD_CAT_ID":50829,"ELEMENT_SET_NO":999,"REV_AT_EPOCH":13970,"BSTAR":0.00020332,"MEAN_MOTION_DOT":2.95e-5,"MEAN_MOTION_DDOT":0},{"OBJECT_NAME":"STARLINK-3278","OBJECT_ID":"2022-001AD","EPOCH":"2024-07-16T17:17:18.407616","MEAN_MOTION":15.08850174,"ECCENTRICITY":0.0001119,"INCLINATION":53.2183,"RA_OF_ASC_NODE":356.9773,"ARG_OF_PERICENTER":84.7163,"MEAN_ANOMALY":275.3957,"EPHEMERIS_TYPE":0,"CLASSIFICATION_TYPE":"U","NORAD_CAT_ID":50830,"ELEMENT_SET_NO":999,"REV_AT_EPOCH":13954,"BSTAR":0.00010984,"MEAN_MOTION_DOT":1.461e-5,"MEAN_MOTION_DDOT":0},{"OBJECT_NAME":"STARLINK-3299","OBJECT_ID":"2022-001AE","EPOCH":"2024-07-17T03:06:51.441120","MEAN_MOTION":15.08867098,"ECCENTRICITY":0.0001491,"INCLINATION":53.2171,"RA_OF_ASC_NODE":345.2059,"ARG_OF_PERICENTER":65.8894,"MEAN_ANOMALY":294.2254,"EPHEMERIS_TYPE":0,"CLASSIFICATION_TYPE":"U","NORAD_CAT_ID":50831,"ELEMENT_SET_NO":999,"REV_AT_EPOCH":14101,"BSTAR":0.00089543,"MEAN_MOTION_DOT":0.00014002,"MEAN_MOTION_DDOT":0},{"OBJECT_NAME":"STARLINK-3328","OBJECT_ID":"2022-001AF","EPOCH":"2024-07-16T17:18:41.653152","MEAN_MOTION":15.08846697,"ECCENTRICITY":0.0001303,"INCLINATION":53.22,"RA_OF_ASC_NODE":357.0211,"ARG_OF_PERICENTER":111.8119,"MEAN_ANOMALY":248.3012,"EPHEMERIS_TYPE":0,"CLASSIFICATION_TYPE":"U","NORAD_CAT_ID":50832,"ELEMENT_SET_NO":999,"REV_AT_EPOCH":13954,"BSTAR":4.4107e-5,"MEAN_MOTION_DOT":4.14e-6,"MEAN_MOTION_DDOT":0},{"OBJECT_NAME":"STARLINK-3316","OBJECT_ID":"2022-001AG","EPOCH":"2024-07-16T22:00:00.999936","MEAN_MOTION":15.49195156,"ECCENTRICITY":0.0004827,"INCLINATION":53.2051,"RA_OF_ASC_NODE":296.8996,"ARG_OF_PERICENTER":45.7202,"MEAN_ANOMALY":284.3956,"EPHEMERIS_TYPE":0,"CLASSIFICATION_TYPE":"U","NORAD_CAT_ID":50833,"ELEMENT_SET_NO":999,"REV_AT_EPOCH":580,"BSTAR":0.0018107,"MEAN_MOTION_DOT":0.0010119,"MEAN_MOTION_DDOT":0},{"OBJECT_NAME":"STARLINK-3331","OBJECT_ID":"2022-001AH","EPOCH":"2024-07-16T16:56:07.153440","MEAN_MOTION":15.08848392,"ECCENTRICITY":0.0001376,"INCLINATION":53.2178,"RA_OF_ASC_NODE":357.0451,"ARG_OF_PERICENTER":112.4617,"MEAN_ANOMALY":247.6521,"EPHEMERIS_TYPE":0,"CLASSIFICATION_TYPE":"U","NORAD_CAT_ID":50834,"ELEMENT_SET_NO":999,"REV_AT_EPOCH":13953,"BSTAR":0.00048057,"MEAN_MOTION_DOT":7.37e-5,"MEAN_MOTION_DDOT":0},{"OBJECT_NAME":"STARLINK-3310","OBJECT_ID":"2022-001AJ","EPOCH":"2024-07-16T17:01:25.465728","MEAN_MOTION":15.08850384,"ECCENTRICITY":0.0001256,"INCLINATION":53.2183,"RA_OF_ASC_NODE":357.1458,"ARG_OF_PERICENTER":77.8731,"MEAN_ANOMALY":282.2402,"EPHEMERIS_TYPE":0,"CLASSIFICATION_TYPE":"U","NORAD_CAT_ID":50835,"ELEMENT_SET_NO":999,"REV_AT_EPOCH":13953,"BSTAR":0.00011979,"MEAN_MOTION_DOT":1.62e-5,"MEAN_MOTION_DDOT":0},{"OBJECT_NAME":"STARLINK-3330","OBJECT_ID":"2022-001AK","EPOCH":"2024-07-17T03:38:38.755680","MEAN_MOTION":15.08851789,"ECCENTRICITY":0.0001126,"INCLINATION":53.2173,"RA_OF_ASC_NODE":354.8157,"ARG_OF_PERICENTER":79.4122,"MEAN_ANOMALY":280.6997,"EPHEMERIS_TYPE":0,"CLASSIFICATION_TYPE":"U","NORAD_CAT_ID":50836,"ELEMENT_SET_NO":999,"REV_AT_EPOCH":14086,"BSTAR":8.2883e-5,"MEAN_MOTION_DOT":1.032e-5,"MEAN_MOTION_DDOT":0},{"OBJECT_NAME":"STARLINK-3318","OBJECT_ID":"2022-001AL","EPOCH":"2024-07-17T03:12:09.597888","MEAN_MOTION":15.08834212,"ECCENTRICITY":0.0001736,"INCLINATION":53.2198,"RA_OF_ASC_NODE":345.123,"ARG_OF_PERICENTER":74.3762,"MEAN_ANOMALY":285.7422,"EPHEMERIS_TYPE":0,"CLASSIFICATION_TYPE":"U","NORAD_CAT_ID":50837,"ELEMENT_SET_NO":999,"REV_AT_EPOCH":14094,"BSTAR":9.4579e-5,"MEAN_MOTION_DOT":1.217e-5,"MEAN_MOTION_DDOT":0}]
